{
  "type": "FeatureCollection",
  "features": [
    {
      "type": "Feature",
      "properties": {
        "norad_id": 26766,
        "name": "INTELSAT 10 (IS-10)",
        "group": "intelsat",
        "lat": 0.43533239162958737,
        "lon": -121.87620212125597,
        "alt_km": 36105.04315456773,
        "timestamp": "2025-12-25T03:55:55.974560+00:00",
        "meta_object_name": "INTELSAT 10 (IS-10)",
        "meta_object_id": "2001-019A",
        "meta_epoch": "2025-12-24T19:52:43.092192",
        "meta_mean_motion": 0.9907234,
        "meta_eccentricity": 0.0007938,
        "meta_inclination": 8.6564,
        "meta_ra_of_asc_node": 61.0345,
        "meta_arg_of_pericenter": 229.6069,
        "meta_mean_anomaly": 187.8364,
        "meta_ephemeris_type": 0,
        "meta_classification_type": "U",
        "meta_norad_cat_id": 26766,
        "meta_element_set_no": 999,
        "meta_rev_at_epoch": 4385,
        "meta_bstar": 0,
        "meta_mean_motion_dot": 1.5e-07,
        "meta_mean_motion_ddot": 0,
        "tle_line1": "1 26766U 01019A   25358.82827653  .00000015  00000+0  00000+0 0  9996",
        "tle_line2": "2 26766   8.6564  61.0345 0007938 229.6069 187.8364  0.99072340 43859"
      },
      "geometry": {
        "type": "Point",
        "coordinates": [
          -121.87620212125597,
          0.43533239162958737
        ]
      }
    },
    {
      "type": "Feature",
      "properties": {
        "norad_id": 26900,
        "name": "INTELSAT 902 (IS-902)",
        "group": "intelsat",
        "lat": 2.7486264538292207,
        "lon": 102.57213718219158,
        "alt_km": 35805.06714191936,
        "timestamp": "2025-12-25T03:55:55.974586+00:00",
        "meta_object_name": "INTELSAT 902 (IS-902)",
        "meta_object_id": "2001-039A",
        "meta_epoch": "2025-12-15T13:09:02.081664",
        "meta_mean_motion": 1.0027087,
        "meta_eccentricity": 0.00045028,
        "meta_inclination": 5.6536,
        "meta_ra_of_asc_node": 74.0372,
        "meta_arg_of_pericenter": 189.6359,
        "meta_mean_anomaly": 327.9329,
        "meta_ephemeris_type": 0,
        "meta_classification_type": "U",
        "meta_norad_cat_id": 26900,
        "meta_element_set_no": 999,
        "meta_rev_at_epoch": 8885,
        "meta_bstar": 0,
        "meta_mean_motion_dot": -2.65e-06,
        "meta_mean_motion_ddot": 0,
        "tle_line1": "1 26900U 01039A   25349.54794076 -.00000265  00000+0  00000+0 0  9997",
        "tle_line2": "2 26900   5.6536  74.0372 0004502 189.6359 327.9329  1.00270870 88858"
      },
      "geometry": {
        "type": "Point",
        "coordinates": [
          102.57213718219158,
          2.7486264538292207
        ]
      }
    },
    {
      "type": "Feature",
      "properties": {
        "norad_id": 27380,
        "name": "INTELSAT 904 (IS-904)",
        "group": "intelsat",
        "lat": 4.992051466458862,
        "lon": 121.24727204111863,
        "alt_km": 35792.75748390805,
        "timestamp": "2025-12-25T03:55:55.974603+00:00",
        "meta_object_name": "INTELSAT 904 (IS-904)",
        "meta_object_id": "2002-007A",
        "meta_epoch": "2025-12-23T23:15:16.271712",
        "meta_mean_motion": 1.00273356,
        "meta_eccentricity": 0.00018804,
        "meta_inclination": 6.4809,
        "meta_ra_of_asc_node": 71.3034,
        "meta_arg_of_pericenter": 245.293,
        "meta_mean_anomaly": 93.4817,
        "meta_ephemeris_type": 0,
        "meta_classification_type": "U",
        "meta_norad_cat_id": 27380,
        "meta_element_set_no": 999,
        "meta_rev_at_epoch": 5000,
        "meta_bstar": 0,
        "meta_mean_motion_dot": -2.07e-06,
        "meta_mean_motion_ddot": 0,
        "tle_line1": "1 27380U 02007A   25357.96893833 -.00000207  00000+0  00000+0 0  9998",
        "tle_line2": "2 27380   6.4809  71.3034 0001880 245.2930  93.4817  1.00273356 50003"
      },
      "geometry": {
        "type": "Point",
        "coordinates": [
          121.24727204111863,
          4.992051466458862
        ]
      }
    },
    {
      "type": "Feature",
      "properties": {
        "norad_id": 27426,
        "name": "DIRECTV 5 (TEMPO 1)",
        "group": "intelsat",
        "lat": -2.5135357358682002,
        "lon": 42.900853018517076,
        "alt_km": 35793.8408165844,
        "timestamp": "2025-12-25T03:55:55.974617+00:00",
        "meta_object_name": "DIRECTV 5 (TEMPO 1)",
        "meta_object_id": "2002-023A",
        "meta_epoch": "2025-12-24T05:01:47.604864",
        "meta_mean_motion": 1.00271646,
        "meta_eccentricity": 0.00032791,
        "meta_inclination": 4.4296,
        "meta_ra_of_asc_node": 77.5183,
        "meta_arg_of_pericenter": 203.0994,
        "meta_mean_anomaly": 137.6999,
        "meta_ephemeris_type": 0,
        "meta_classification_type": "U",
        "meta_norad_cat_id": 27426,
        "meta_element_set_no": 999,
        "meta_rev_at_epoch": 8636,
        "meta_bstar": 0,
        "meta_mean_motion_dot": -3.8e-07,
        "meta_mean_motion_ddot": 0,
        "tle_line1": "1 27426U 02023A   25358.20957876 -.00000038  00000+0  00000+0 0  9995",
        "tle_line2": "2 27426   4.4296  77.5183 0003279 203.0994 137.6999  1.00271646 86361"
      },
      "geometry": {
        "type": "Point",
        "coordinates": [
          42.900853018517076,
          -2.5135357358682002
        ]
      }
    },
    {
      "type": "Feature",
      "properties": {
        "norad_id": 27438,
        "name": "INTELSAT 905 (IS-905)",
        "group": "intelsat",
        "lat": -5.245830450877227,
        "lon": 15.916829147660811,
        "alt_km": 35787.640622258106,
        "timestamp": "2025-12-25T03:55:55.974630+00:00",
        "meta_object_name": "INTELSAT 905 (IS-905)",
        "meta_object_id": "2002-027A",
        "meta_epoch": "2025-12-23T05:41:27.377952",
        "meta_mean_motion": 1.00273243,
        "meta_eccentricity": 0.00027491,
        "meta_inclination": 6.3102,
        "meta_ra_of_asc_node": 71.9349,
        "meta_arg_of_pericenter": 206.5226,
        "meta_mean_anomaly": 121.7385,
        "meta_ephemeris_type": 0,
        "meta_classification_type": "U",
        "meta_norad_cat_id": 27438,
        "meta_element_set_no": 999,
        "meta_rev_at_epoch": 4959,
        "meta_bstar": 0,
        "meta_mean_motion_dot": 1.12e-06,
        "meta_mean_motion_ddot": 0,
        "tle_line1": "1 27438U 02027A   25357.23712243  .00000112  00000+0  00000+0 0  9993",
        "tle_line2": "2 27438   6.3102  71.9349 0002749 206.5226 121.7385  1.00273243 49592"
      },
      "geometry": {
        "type": "Point",
        "coordinates": [
          15.916829147660811,
          -5.245830450877227
        ]
      }
    },
    {
      "type": "Feature",
      "properties": {
        "norad_id": 27445,
        "name": "GALAXY 3C (G-3C)",
        "group": "intelsat",
        "lat": -1.2381342478422903,
        "lon": 58.071055202058474,
        "alt_km": 35787.839241667076,
        "timestamp": "2025-12-25T03:55:55.974643+00:00",
        "meta_object_name": "GALAXY 3C (G-3C)",
        "meta_object_id": "2002-030A",
        "meta_epoch": "2025-12-24T12:38:58.652736",
        "meta_mean_motion": 1.00271316,
        "meta_eccentricity": 0.0001098,
        "meta_inclination": 3.2915,
        "meta_ra_of_asc_node": 80.3801,
        "meta_arg_of_pericenter": 85.9373,
        "meta_mean_anomaly": 21.8718,
        "meta_ephemeris_type": 0,
        "meta_classification_type": "U",
        "meta_norad_cat_id": 27445,
        "meta_element_set_no": 999,
        "meta_rev_at_epoch": 4474,
        "meta_bstar": 0,
        "meta_mean_motion_dot": -1.33e-06,
        "meta_mean_motion_ddot": 0,
        "tle_line1": "1 27445U 02030A   25358.52706774 -.00000133  00000+0  00000+0 0  9994",
        "tle_line2": "2 27445   3.2915  80.3801 0001098  85.9373  21.8718  1.00271316 44744"
      },
      "geometry": {
        "type": "Point",
        "coordinates": [
          58.071055202058474,
          -1.2381342478422903
        ]
      }
    },
    {
      "type": "Feature",
      "properties": {
        "norad_id": 27513,
        "name": "INTELSAT 906 (IS-906)",
        "group": "intelsat",
        "lat": 3.3014693198810887,
        "lon": -142.89667538148498,
        "alt_km": 35772.587660402925,
        "timestamp": "2025-12-25T03:55:55.974659+00:00",
        "meta_object_name": "INTELSAT 906 (IS-906)",
        "meta_object_id": "2002-041A",
        "meta_epoch": "2025-12-24T18:32:24.807840",
        "meta_mean_motion": 1.00270703,
        "meta_eccentricity": 0.0006184,
        "meta_inclination": 5.3606,
        "meta_ra_of_asc_node": 75.0884,
        "meta_arg_of_pericenter": 201.2549,
        "meta_mean_anomaly": 159.4359,
        "meta_ephemeris_type": 0,
        "meta_classification_type": "U",
        "meta_norad_cat_id": 27513,
        "meta_element_set_no": 999,
        "meta_rev_at_epoch": 8528,
        "meta_bstar": 0,
        "meta_mean_motion_dot": 3.2e-07,
        "meta_mean_motion_ddot": 0,
        "tle_line1": "1 27513U 02041A   25358.77250935  .00000032  00000+0  00000+0 0  9999",
        "tle_line2": "2 27513   5.3606  75.0884 0006184 201.2549 159.4359  1.00270703 85283"
      },
      "geometry": {
        "type": "Point",
        "coordinates": [
          -142.89667538148498,
          3.3014693198810887
        ]
      }
    }
  ]
}